<?xml version="1.0" encoding="UTF-8"?>
<ndm xmlns:xsi="http://www.w3.org/2001/XMLSchema-instance" xsi:noNamespaceSchemaLocation="https://sanaregistry.org/r/ndmxml_unqualified/ndmxml-2.0.0-master-2.0.xsd">
<omm id="CCSDS_OMM_VERS" version="2.0">
<header><CREATION_DATE/><ORIGINATOR/></header><body><segment><metadata><OBJECT_NAME>ORBCOMM FM20</OBJECT_NAME><OBJECT_ID>1998-046D</OBJECT_ID><CENTER_NAME>EARTH</CENTER_NAME><REF_FRAME>TEME</REF_FRAME><TIME_SYSTEM>UTC</TIME_SYSTEM><MEAN_ELEMENT_THEORY>SGP4</MEAN_ELEMENT_THEORY></metadata><data><meanElements><EPOCH>2025-02-17T14:42:49.559904</EPOCH><MEAN_MOTION>14.36763618</MEAN_MOTION><ECCENTRICITY>.0002193</ECCENTRICITY><INCLINATION>44.9949</INCLINATION><RA_OF_ASC_NODE>27.3820</RA_OF_ASC_NODE><ARG_OF_PERICENTER>319.7904</ARG_OF_PERICENTER><MEAN_ANOMALY>40.2781</MEAN_ANOMALY></meanElements><tleParameters><EPHEMERIS_TYPE>0</EPHEMERIS_TYPE><CLASSIFICATION_TYPE>U</CLASSIFICATION_TYPE><NORAD_CAT_ID>25416</NORAD_CAT_ID><ELEMENT_SET_NO>999</ELEMENT_SET_NO><REV_AT_EPOCH>38706</REV_AT_EPOCH><BSTAR>.87573E-3</BSTAR><MEAN_MOTION_DOT>.2466E-4</MEAN_MOTION_DOT><MEAN_MOTION_DDOT>0</MEAN_MOTION_DDOT></tleParameters></data></segment></body></omm>
<omm id="CCSDS_OMM_VERS" version="2.0">
<header><CREATION_DATE/><ORIGINATOR/></header><body><segment><metadata><OBJECT_NAME>ORBCOMM FM15</OBJECT_NAME><OBJECT_ID>1998-046F</OBJECT_ID><CENTER_NAME>EARTH</CENTER_NAME><REF_FRAME>TEME</REF_FRAME><TIME_SYSTEM>UTC</TIME_SYSTEM><MEAN_ELEMENT_THEORY>SGP4</MEAN_ELEMENT_THEORY></metadata><data><meanElements><EPOCH>2025-02-17T06:36:35.646048</EPOCH><MEAN_MOTION>14.37952199</MEAN_MOTION><ECCENTRICITY>.0003908</ECCENTRICITY><INCLINATION>44.9978</INCLINATION><RA_OF_ASC_NODE>26.8549</RA_OF_ASC_NODE><ARG_OF_PERICENTER>20.9533</ARG_OF_PERICENTER><MEAN_ANOMALY>339.1474</MEAN_ANOMALY></meanElements><tleParameters><EPHEMERIS_TYPE>0</EPHEMERIS_TYPE><CLASSIFICATION_TYPE>U</CLASSIFICATION_TYPE><NORAD_CAT_ID>25418</NORAD_CAT_ID><ELEMENT_SET_NO>999</ELEMENT_SET_NO><REV_AT_EPOCH>38698</REV_AT_EPOCH><BSTAR>.1086E-2</BSTAR><MEAN_MOTION_DOT>.3171E-4</MEAN_MOTION_DOT><MEAN_MOTION_DDOT>0</MEAN_MOTION_DDOT></tleParameters></data></segment></body></omm>
<omm id="CCSDS_OMM_VERS" version="2.0">
<header><CREATION_DATE/><ORIGINATOR/></header><body><segment><metadata><OBJECT_NAME>ORBCOMM FM14</OBJECT_NAME><OBJECT_ID>1998-046G</OBJECT_ID><CENTER_NAME>EARTH</CENTER_NAME><REF_FRAME>TEME</REF_FRAME><TIME_SYSTEM>UTC</TIME_SYSTEM><MEAN_ELEMENT_THEORY>SGP4</MEAN_ELEMENT_THEORY></metadata><data><meanElements><EPOCH>2025-02-17T14:23:30.875424</EPOCH><MEAN_MOTION>14.38267836</MEAN_MOTION><ECCENTRICITY>.0003349</ECCENTRICITY><INCLINATION>44.9967</INCLINATION><RA_OF_ASC_NODE>23.8811</RA_OF_ASC_NODE><ARG_OF_PERICENTER>5.7990</ARG_OF_PERICENTER><MEAN_ANOMALY>354.2896</MEAN_ANOMALY></meanElements><tleParameters><EPHEMERIS_TYPE>0</EPHEMERIS_TYPE><CLASSIFICATION_TYPE>U</CLASSIFICATION_TYPE><NORAD_CAT_ID>25419</NORAD_CAT_ID><ELEMENT_SET_NO>999</ELEMENT_SET_NO><REV_AT_EPOCH>38699</REV_AT_EPOCH><BSTAR>.10838E-2</BSTAR><MEAN_MOTION_DOT>.3186E-4</MEAN_MOTION_DOT><MEAN_MOTION_DDOT>0</MEAN_MOTION_DDOT></tleParameters></data></segment></body></omm>
<omm id="CCSDS_OMM_VERS" version="2.0">
<header><CREATION_DATE/><ORIGINATOR/></header><body><segment><metadata><OBJECT_NAME>ORBCOMM FM21</OBJECT_NAME><OBJECT_ID>1998-053A</OBJECT_ID><CENTER_NAME>EARTH</CENTER_NAME><REF_FRAME>TEME</REF_FRAME><TIME_SYSTEM>UTC</TIME_SYSTEM><MEAN_ELEMENT_THEORY>SGP4</MEAN_ELEMENT_THEORY></metadata><data><meanElements><EPOCH>2025-02-17T12:37:54.013440</EPOCH><MEAN_MOTION>14.36902325</MEAN_MOTION><ECCENTRICITY>.0002569</ECCENTRICITY><INCLINATION>45.0072</INCLINATION><RA_OF_ASC_NODE>116.0027</RA_OF_ASC_NODE><ARG_OF_PERICENTER>276.2216</ARG_OF_PERICENTER><MEAN_ANOMALY>83.8339</MEAN_ANOMALY></meanElements><tleParameters><EPHEMERIS_TYPE>0</EPHEMERIS_TYPE><CLASSIFICATION_TYPE>U</CLASSIFICATION_TYPE><NORAD_CAT_ID>25475</NORAD_CAT_ID><ELEMENT_SET_NO>999</ELEMENT_SET_NO><REV_AT_EPOCH>38003</REV_AT_EPOCH><BSTAR>.69274E-3</BSTAR><MEAN_MOTION_DOT>.1927E-4</MEAN_MOTION_DOT><MEAN_MOTION_DDOT>0</MEAN_MOTION_DDOT></tleParameters></data></segment></body></omm>
<omm id="CCSDS_OMM_VERS" version="2.0">
<header><CREATION_DATE/><ORIGINATOR/></header><body><segment><metadata><OBJECT_NAME>ORBCOMM FM22</OBJECT_NAME><OBJECT_ID>1998-053B</OBJECT_ID><CENTER_NAME>EARTH</CENTER_NAME><REF_FRAME>TEME</REF_FRAME><TIME_SYSTEM>UTC</TIME_SYSTEM><MEAN_ELEMENT_THEORY>SGP4</MEAN_ELEMENT_THEORY></metadata><data><meanElements><EPOCH>2025-02-17T13:49:01.979040</EPOCH><MEAN_MOTION>14.37792716</MEAN_MOTION><ECCENTRICITY>.0003948</ECCENTRICITY><INCLINATION>45.0066</INCLINATION><RA_OF_ASC_NODE>111.5330</RA_OF_ASC_NODE><ARG_OF_PERICENTER>301.6680</ARG_OF_PERICENTER><MEAN_ANOMALY>58.3782</MEAN_ANOMALY></meanElements><tleParameters><EPHEMERIS_TYPE>0</EPHEMERIS_TYPE><CLASSIFICATION_TYPE>U</CLASSIFICATION_TYPE><NORAD_CAT_ID>25476</NORAD_CAT_ID><ELEMENT_SET_NO>999</ELEMENT_SET_NO><REV_AT_EPOCH>38005</REV_AT_EPOCH><BSTAR>.79647E-3</BSTAR><MEAN_MOTION_DOT>.228E-4</MEAN_MOTION_DOT><MEAN_MOTION_DDOT>0</MEAN_MOTION_DDOT></tleParameters></data></segment></body></omm>
<omm id="CCSDS_OMM_VERS" version="2.0">
<header><CREATION_DATE/><ORIGINATOR/></header><body><segment><metadata><OBJECT_NAME>ORBCOMM FM23</OBJECT_NAME><OBJECT_ID>1998-053C</OBJECT_ID><CENTER_NAME>EARTH</CENTER_NAME><REF_FRAME>TEME</REF_FRAME><TIME_SYSTEM>UTC</TIME_SYSTEM><MEAN_ELEMENT_THEORY>SGP4</MEAN_ELEMENT_THEORY></metadata><data><meanElements><EPOCH>2025-02-17T14:38:24.358560</EPOCH><MEAN_MOTION>14.37031347</MEAN_MOTION><ECCENTRICITY>.0003237</ECCENTRICITY><INCLINATION>45.0073</INCLINATION><RA_OF_ASC_NODE>117.8788</RA_OF_ASC_NODE><ARG_OF_PERICENTER>290.9363</ARG_OF_PERICENTER><MEAN_ANOMALY>69.1139</MEAN_ANOMALY></meanElements><tleParameters><EPHEMERIS_TYPE>0</EPHEMERIS_TYPE><CLASSIFICATION_TYPE>U</CLASSIFICATION_TYPE><NORAD_CAT_ID>25477</NORAD_CAT_ID><ELEMENT_SET_NO>999</ELEMENT_SET_NO><REV_AT_EPOCH>38019</REV_AT_EPOCH><BSTAR>.75201E-3</BSTAR><MEAN_MOTION_DOT>.211E-4</MEAN_MOTION_DOT><MEAN_MOTION_DDOT>0</MEAN_MOTION_DDOT></tleParameters></data></segment></body></omm>

</ndm>
