ORBCOMM FM20            
1 25416U 98046D   25048.61307361  .00002466  00000+0  87573-3 0  9991
2 25416  44.9949  27.3820 0002193 319.7904  40.2781 14.36763618387105
ORBCOMM FM15            
1 25418U 98046F   25048.27541257  .00003171  00000+0  10860-2 0  9997
2 25418  44.9978  26.8549 0003908  20.9533 339.1474 14.37952199386984
ORBCOMM FM14            
1 25419U 98046G   25048.59966291  .00003186  00000+0  10838-2 0  9993
2 25419  44.9967  23.8811 0003349   5.7990 354.2896 14.38267836386994
ORBCOMM FM21            
1 25475U 98053A   25048.52631960  .00001927  00000+0  69274-3 0  9998
2 25475  45.0072 116.0027 0002569 276.2216  83.8339 14.36902325380031
ORBCOMM FM22            
1 25476U 98053B   25048.57571735  .00002280  00000+0  79647-3 0  9995
2 25476  45.0066 111.5330 0003948 301.6680  58.3782 14.37792716380055
ORBCOMM FM23            
1 25477U 98053C   25048.61000415  .00002110  00000+0  75201-3 0  9997
2 25477  45.0073 117.8788 0003237 290.9363  69.1139 14.37031347380196
